{
  "type": "FeatureCollection",
  "features": [
    {
      "type": "Feature",
      "properties": {
        "norad_id": 36744,
        "name": "COMS 1",
        "group": "weather",
        "lat": -4.311908765193558,
        "lon": -11.447492667244722,
        "alt_km": 35786.92916218199,
        "timestamp": "2025-12-04T09:47:37.165828+00:00",
        "meta_object_name": "COMS 1",
        "meta_object_id": "2010-032A",
        "meta_epoch": "2025-12-03T17:35:32.728416",
        "meta_mean_motion": 1.00269913,
        "meta_eccentricity": 0.0001111,
        "meta_inclination": 4.318,
        "meta_ra_of_asc_node": 78.097,
        "meta_arg_of_pericenter": 184.7227,
        "meta_mean_anomaly": 202.0533,
        "meta_ephemeris_type": 0,
        "meta_classification_type": "U",
        "meta_norad_cat_id": 36744,
        "meta_element_set_no": 999,
        "meta_rev_at_epoch": 4913,
        "meta_bstar": 0,
        "meta_mean_motion_dot": -3.29e-06,
        "meta_mean_motion_ddot": 0,
        "tle_line1": "1 36744U 10032A   25337.73301769 -.00000329  00000+0  00000+0 0  9999",
        "tle_line2": "2 36744   4.3180  78.0970 0001111 184.7227 202.0533  1.00269913 49131"
      },
      "geometry": {
        "type": "Point",
        "coordinates": [
          -11.447492667244722,
          -4.311908765193558
        ]
      }
    },
    {
      "type": "Feature",
      "properties": {
        "norad_id": 37214,
        "name": "FENGYUN 3B",
        "group": "weather",
        "lat": 73.83945901552042,
        "lon": -128.55104350253293,
        "alt_km": 833.7139823129337,
        "timestamp": "2025-12-04T09:47:37.165840+00:00",
        "meta_object_name": "FENGYUN 3B",
        "meta_object_id": "2010-059A",
        "meta_epoch": "2025-12-03T23:40:28.257024",
        "meta_mean_motion": 14.14786033,
        "meta_eccentricity": 0.00224241,
        "meta_inclination": 98.9921,
        "meta_ra_of_asc_node": 17.9022,
        "meta_arg_of_pericenter": 22.432,
        "meta_mean_anomaly": 94.4995,
        "meta_ephemeris_type": 0,
        "meta_classification_type": "U",
        "meta_norad_cat_id": 37214,
        "meta_element_set_no": 999,
        "meta_rev_at_epoch": 77982,
        "meta_bstar": 0.00013251455,
        "meta_mean_motion_dot": 2.11e-06,
        "meta_mean_motion_ddot": 0,
        "tle_line1": "1 37214U 10059A   25337.98643816  .00000211  00000+0  13251-3 0  9995",
        "tle_line2": "2 37214  98.9921  17.9022 0022424  22.4320  94.4995 14.14786033779825"
      },
      "geometry": {
        "type": "Point",
        "coordinates": [
          -128.55104350253293,
          73.83945901552042
        ]
      }
    },
    {
      "type": "Feature",
      "properties": {
        "norad_id": 37849,
        "name": "SUOMI NPP",
        "group": "weather",
        "lat": 17.04194200223176,
        "lon": 98.53930255496675,
        "alt_km": 826.2365266811685,
        "timestamp": "2025-12-04T09:47:37.165852+00:00",
        "meta_object_name": "SUOMI NPP",
        "meta_object_id": "2011-061A",
        "meta_epoch": "2025-12-04T03:57:18.153216",
        "meta_mean_motion": 14.19510497,
        "meta_eccentricity": 0.0001925,
        "meta_inclination": 98.776,
        "meta_ra_of_asc_node": 275.5842,
        "meta_arg_of_pericenter": 135.6897,
        "meta_mean_anomaly": 224.4433,
        "meta_ephemeris_type": 0,
        "meta_classification_type": "U",
        "meta_norad_cat_id": 37849,
        "meta_element_set_no": 999,
        "meta_rev_at_epoch": 73077,
        "meta_bstar": 0.00012225,
        "meta_mean_motion_dot": 2.13e-06,
        "meta_mean_motion_ddot": 0,
        "tle_line1": "1 37849U 11061A   25338.16479344  .00000213  00000+0  12225-3 0  9999",
        "tle_line2": "2 37849  98.7760 275.5842 0001925 135.6897 224.4433 14.19510497730776"
      },
      "geometry": {
        "type": "Point",
        "coordinates": [
          98.53930255496675,
          17.04194200223176
        ]
      }
    },
    {
      "type": "Feature",
      "properties": {
        "norad_id": 38552,
        "name": "METEOSAT-10 (MSG-3)",
        "group": "weather",
        "lat": 1.5003621526415793,
        "lon": -139.47584374819442,
        "alt_km": 35784.13729514647,
        "timestamp": "2025-12-04T09:47:37.165865+00:00",
        "meta_object_name": "METEOSAT-10 (MSG-3)",
        "meta_object_id": "2012-035B",
        "meta_epoch": "2025-12-03T01:46:14.361312",
        "meta_mean_motion": 1.00272334,
        "meta_eccentricity": 7.5e-05,
        "meta_inclination": 4.2044,
        "meta_ra_of_asc_node": 61.7366,
        "meta_arg_of_pericenter": 219.9554,
        "meta_mean_anomaly": 177.1386,
        "meta_ephemeris_type": 0,
        "meta_classification_type": "U",
        "meta_norad_cat_id": 38552,
        "meta_element_set_no": 999,
        "meta_rev_at_epoch": 4889,
        "meta_bstar": 0,
        "meta_mean_motion_dot": 1.1e-07,
        "meta_mean_motion_ddot": 0,
        "tle_line1": "1 38552U 12035B   25337.07377733  .00000011  00000+0  00000+0 0  9991",
        "tle_line2": "2 38552   4.2044  61.7366 0000750 219.9554 177.1386  1.00272334 48899"
      },
      "geometry": {
        "type": "Point",
        "coordinates": [
          -139.47584374819442,
          1.5003621526415793
        ]
      }
    },
    {
      "type": "Feature",
      "properties": {
        "norad_id": 38771,
        "name": "METOP-B",
        "group": "weather",
        "lat": -41.2894839772882,
        "lon": 36.218492845423235,
        "alt_km": 828.7861052340395,
        "timestamp": "2025-12-04T09:47:37.165877+00:00",
        "meta_object_name": "METOP-B",
        "meta_object_id": "2012-049A",
        "meta_epoch": "2025-12-03T23:51:13.778208",
        "meta_mean_motion": 14.21403487,
        "meta_eccentricity": 0.00025204,
        "meta_inclination": 98.6812,
        "meta_ra_of_asc_node": 28.1005,
        "meta_arg_of_pericenter": 163.9028,
        "meta_mean_anomaly": 196.223,
        "meta_ephemeris_type": 0,
        "meta_classification_type": "U",
        "meta_norad_cat_id": 38771,
        "meta_element_set_no": 999,
        "meta_rev_at_epoch": 68553,
        "meta_bstar": 0.00016338265,
        "meta_mean_motion_dot": 3.13e-06,
        "meta_mean_motion_ddot": 0,
        "tle_line1": "1 38771U 12049A   25337.99390947  .00000313  00000+0  16338-3 0  9992",
        "tle_line2": "2 38771  98.6812  28.1005 0002520 163.9028 196.2230 14.21403487685530"
      },
      "geometry": {
        "type": "Point",
        "coordinates": [
          36.218492845423235,
          -41.2894839772882
        ]
      }
    },
    {
      "type": "Feature",
      "properties": {
        "norad_id": 39216,
        "name": "INSAT-3D",
        "group": "weather",
        "lat": -1.404325411696107,
        "lon": -10.089177875315334,
        "alt_km": 35788.35635000186,
        "timestamp": "2025-12-04T09:47:37.165889+00:00",
        "meta_object_name": "INSAT-3D",
        "meta_object_id": "2013-038B",
        "meta_epoch": "2025-12-03T19:09:59.504832",
        "meta_mean_motion": 1.00273601,
        "meta_eccentricity": 0.00017622,
        "meta_inclination": 1.4199,
        "meta_ra_of_asc_node": 85.093,
        "meta_arg_of_pericenter": 155.0281,
        "meta_mean_anomaly": 249.7797,
        "meta_ephemeris_type": 0,
        "meta_classification_type": "U",
        "meta_norad_cat_id": 39216,
        "meta_element_set_no": 999,
        "meta_rev_at_epoch": 4512,
        "meta_bstar": 0,
        "meta_mean_motion_dot": -3.22e-06,
        "meta_mean_motion_ddot": 0,
        "tle_line1": "1 39216U 13038B   25337.79860538 -.00000322  00000+0  00000+0 0  9998",
        "tle_line2": "2 39216   1.4199  85.0930 0001762 155.0281 249.7797  1.00273601 45127"
      },
      "geometry": {
        "type": "Point",
        "coordinates": [
          -10.089177875315334,
          -1.404325411696107
        ]
      }
    },
    {
      "type": "Feature",
      "properties": {
        "norad_id": 39260,
        "name": "FENGYUN 3C",
        "group": "weather",
        "lat": 16.217377558495098,
        "lon": -45.991004611677845,
        "alt_km": 849.6445344696613,
        "timestamp": "2025-12-04T09:47:37.165901+00:00",
        "meta_object_name": "FENGYUN 3C",
        "meta_object_id": "2013-052A",
        "meta_epoch": "2025-12-04T04:37:39.008640",
        "meta_mean_motion": 14.15692321,
        "meta_eccentricity": 0.0013861,
        "meta_inclination": 98.4754,
        "meta_ra_of_asc_node": 316.2899,
        "meta_arg_of_pericenter": 221.708,
        "meta_mean_anomaly": 138.3039,
        "meta_ephemeris_type": 0,
        "meta_classification_type": "U",
        "meta_norad_cat_id": 39260,
        "meta_element_set_no": 999,
        "meta_rev_at_epoch": 63097,
        "meta_bstar": 0.00014795,
        "meta_mean_motion_dot": 2.49e-06,
        "meta_mean_motion_ddot": 0,
        "tle_line1": "1 39260U 13052A   25338.19281260  .00000249  00000+0  14795-3 0  9994",
        "tle_line2": "2 39260  98.4754 316.2899 0013861 221.7080 138.3039 14.15692321630972"
      },
      "geometry": {
        "type": "Point",
        "coordinates": [
          -45.991004611677845,
          16.217377558495098
        ]
      }
    }
  ]
}